      2.10          N: GNSS NAV DATA                        RINEX VERSION / TYPE
fic2rin                                 10/28/2021 00:17:42 PGM / RUN BY / DATE
                                                            END OF HEADER
18 21 10 27 14  0  0.0 3.044451586902e-04-5.343281372916e-12 0.000000000000e+00
    2.280000000000e+02-5.800000000000e+01 4.358395830395e-09-1.659535762760e+00
   -3.170222043991e-06 2.043347223662e-03 4.418194293976e-06 5.153644807816e+03
    3.096000000000e+05-2.421438694000e-08 1.008832901025e-01 0.000000000000e+00
    9.699425273481e-01 3.017500000000e+02 3.020457672106e+00-8.113195089998e-09
    7.857470152314e-11 1.000000000000e+00 2.181000000000e+03 0.000000000000e+00
    2.400000000000e+00 0.000000000000e+00-8.381903171539e-09 9.960000000000e+02
    3.024000000000e+05 4.000000000000e+00
28 21 10 27 14  0  0.0 4.745260812342e-04-7.275957614183e-12 0.000000000000e+00
    1.000000000000e+02 5.631250000000e+01 4.240890935844e-09 8.071333385605e-01
    2.769753336906e-06 1.741050637793e-02 7.679685950279e-06 5.153716854095e+03
    3.096000000000e+05-1.415610313416e-07-1.920764136085e+00-2.551823854446e-07
    9.707194377895e-01 2.404687500000e+02-1.321767591600e+00-8.131767292176e-09
   -1.728643433509e-10 1.000000000000e+00 2.181000000000e+03 0.000000000000e+00
    4.850000000000e+00 6.300000000000e+01-1.117587089539e-08 1.000000000000e+02
    3.024000000000e+05 4.000000000000e+00
31 21 10 27 13 59 44.0-1.471061259508e-04-1.932676241267e-12 0.000000000000e+00
    1.000000000000e+00 1.812500000000e+01 4.690552523197e-09-2.999080379370e+00
    8.437782526016e-07 1.030731666833e-02 7.936730980873e-06 5.153631481171e+03
    3.095840000000e+05-9.499490261078e-08-3.037062403805e+00-8.754432201385e-08
    9.559065027828e-01 2.251250000000e+02 3.189349763505e-01-7.853541417238e-09
   -2.478674675321e-10 1.000000000000e+00 2.181000000000e+03 0.000000000000e+00
    2.400000000000e+00 0.000000000000e+00-1.303851604462e-08 1.000000000000e+00
    3.077100000000e+05 4.000000000000e+00
31 21 10 27 15 59 44.0-1.471200957894e-04-1.932676241267e-12 0.000000000000e+00
    2.000000000000e+00 1.446875000000e+01 4.753055126681e-09-1.948922236983e+00
    6.295740604401e-07 1.030775520485e-02 7.711350917816e-06 5.153630241394e+03
    3.167840000000e+05 6.705522537231e-08-3.037119968169e+00-1.266598701477e-07
    9.559048175011e-01 2.288437500000e+02 3.189856269632e-01-7.943545166255e-09
   -1.392915163365e-10 1.000000000000e+00 2.181000000000e+03 0.000000000000e+00
    2.400000000000e+00 0.000000000000e+00-1.303851604462e-08 2.000000000000e+00
    3.096000000000e+05 4.000000000000e+00
 2 21 10 27 16  0  0.0-6.394083611667e-04-1.705302565824e-12 0.000000000000e+00
    2.400000000000e+01-3.478125000000e+01 4.558761319279e-09-6.386179705104e-01
   -1.844018697739e-06 2.040975284763e-02 4.937872290611e-06 5.153784614563e+03
    3.168000000000e+05-2.589076757431e-07 4.455845123835e-03 7.823109626770e-08
    9.646535445264e-01 2.930000000000e+02-1.485014723933e+00-8.522497853387e-09
    1.803646557690e-10 1.000000000000e+00 2.181000000000e+03 0.000000000000e+00
    2.400000000000e+00 0.000000000000e+00-1.769512891769e-08 2.400000000000e+01
    3.096000000000e+05 4.000000000000e+00
 1 21 10 27 16  0  0.0 5.274415016174e-04-1.068656274583e-11 0.000000000000e+00
    1.080000000000e+02-4.440625000000e+01 4.026953453061e-09-8.675063804257e-01
   -2.123415470123e-06 1.107559015509e-02 4.420056939125e-06 5.153676523209e+03
    3.168000000000e+05 9.313225746155e-08 9.137797695667e-02 2.607703208923e-07
    9.861910311806e-01 3.082500000000e+02 8.877425107475e-01-8.068193215490e-09
    4.035882396416e-11 1.000000000000e+00 2.181000000000e+03 0.000000000000e+00
    3.400000000000e+00 0.000000000000e+00 5.122274160385e-09 1.080000000000e+02
    3.096000000000e+05 4.000000000000e+00
16 21 10 27 16  0  0.0-4.140948876739e-04-6.366462912410e-12 0.000000000000e+00
    2.300000000000e+01 7.575000000000e+01 4.121243094889e-09 2.221242703880e+00
    3.725290298462e-06 1.233918429352e-02 8.510425686836e-06 5.153781736374e+03
    3.168000000000e+05-2.030283212662e-07-1.924315827615e+00-1.955777406693e-07
    9.715973539468e-01 2.227187500000e+02 6.823415270863e-01-7.754251567131e-09
   -2.350097891010e-10 1.000000000000e+00 2.181000000000e+03 0.000000000000e+00
    2.400000000000e+00 0.000000000000e+00-1.024454832077e-08 2.300000000000e+01
    3.096000000000e+05 4.000000000000e+00
10 21 10 27 16  0  0.0-2.330220304430e-04-8.299139153678e-12 0.000000000000e+00
    2.200000000000e+01-8.087500000000e+01 4.214104105780e-09-2.825409867948e+00
   -4.181638360023e-06 7.095755543560e-03 8.609145879745e-06 5.153680006027e+03
    3.168000000000e+05-2.980232238770e-08 1.124376811493e+00-1.136213541031e-07
    9.707482938486e-01 2.205937500000e+02-2.582401205959e+00-7.720321582383e-09
    2.485817830005e-10 1.000000000000e+00 2.181000000000e+03 0.000000000000e+00
    2.400000000000e+00 0.000000000000e+00 2.328306436539e-09 2.200000000000e+01
    3.096000000000e+05 4.000000000000e+00
12 21 10 27 16  0  0.0-1.176646910608e-04-5.570655048359e-12 0.000000000000e+00
    7.800000000000e+01 6.921875000000e+01 4.086241636937e-09-2.204449067032e+00
    3.617256879807e-06 8.303651120514e-03 7.579103112221e-06 5.153662374496e+03
    3.168000000000e+05 1.341104507446e-07-1.943001421305e+00-6.146728992462e-08
    9.716060875678e-01 2.403437500000e+02 1.231373680136e+00-7.637818145783e-09
   -1.767930784271e-10 1.000000000000e+00 2.181000000000e+03 0.000000000000e+00
    2.400000000000e+00 0.000000000000e+00-1.257285475731e-08 7.800000000000e+01
    3.096000000000e+05 4.000000000000e+00
 9 21 10 27 16  0  0.0-3.619086928666e-04 0.000000000000e+00 0.000000000000e+00
    4.600000000000e+01-1.768750000000e+01 4.771984486594e-09 1.792351720861e+00
   -1.015141606331e-06 2.309003029950e-03 7.847324013710e-06 5.153683885574e+03
    3.168000000000e+05 5.587935447693e-09 2.156529950643e+00-6.146728992462e-08
    9.535540412733e-01 2.216875000000e+02 1.817642952902e+00-7.989618513966e-09
    1.275053111080e-10 1.000000000000e+00 2.181000000000e+03 0.000000000000e+00
    2.400000000000e+00 0.000000000000e+00 1.396983861923e-09 4.600000000000e+01
    3.096000000000e+05 4.000000000000e+00
 8 21 10 27 16  0  0.0-4.172138869762e-05-1.477928890381e-12 0.000000000000e+00
    3.300000000000e+01 6.050000000000e+01 4.263391873099e-09 1.468419944465e+00
    3.175809979439e-06 6.652032490820e-03 4.997476935387e-06 5.153677734375e+03
    3.168000000000e+05 3.725290298462e-09-9.859135097693e-01 6.146728992462e-08
    9.658044733815e-01 2.839687500000e+02 5.280274801783e-02-8.128552872569e-09
   -3.500145795122e-11 1.000000000000e+00 2.181000000000e+03 0.000000000000e+00
    2.400000000000e+00 0.000000000000e+00 5.122274160385e-09 3.300000000000e+01
    3.096000000000e+05 4.000000000000e+00
 5 21 10 27 16  0  0.0-5.907053127885e-05-1.250555214938e-12 0.000000000000e+00
    7.100000000000e+01-6.556250000000e+01 4.638050336270e-09 1.752811987106e+00
   -3.430992364883e-06 6.046549766324e-03 8.059665560722e-06 5.153607889175e+03
    3.168000000000e+05-1.322478055954e-07 1.088285997812e+00-8.195638656616e-08
    9.579009809236e-01 2.246875000000e+02 1.011605265374e+00-8.007476400676e-09
    2.000083311498e-10 1.000000000000e+00 2.181000000000e+03 0.000000000000e+00
    2.400000000000e+00 0.000000000000e+00-1.117587089539e-08 7.100000000000e+01
    3.096000000000e+05 4.000000000000e+00
 4 21 10 27 16  0  0.0-2.030367031693e-04 6.821210263297e-13 0.000000000000e+00
    9.600000000000e+01-1.921875000000e+01 4.703053043894e-09 9.645718244596e-01
   -9.629875421524e-07 1.469637150876e-03 7.735565304756e-06 5.153681116104e+03
    3.168000000000e+05 2.235174179077e-08 2.208599424140e+00-7.823109626770e-08
    9.606522558453e-01 2.272187500000e+02-3.118987639040e+00-7.994261564511e-09
    9.678974596714e-11 1.000000000000e+00 2.181000000000e+03 0.000000000000e+00
    2.400000000000e+00 0.000000000000e+00-4.190951585770e-09 9.600000000000e+01
    3.096000000000e+05 4.000000000000e+00
 6 21 10 27 16  0  0.0 1.039844937623e-04 8.640199666843e-12 0.000000000000e+00
    7.200000000000e+01-4.175000000000e+01 3.941592754588e-09-4.824721848574e-01
   -2.391636371613e-06 2.311324933544e-03 4.850327968597e-06 5.153605377197e+03
    3.168000000000e+05-2.048909664154e-08 8.312300526396e-02-3.166496753693e-08
    9.856023558714e-01 2.978750000000e+02-1.038546810912e+00-7.931044645558e-09
    8.750364487804e-11 1.000000000000e+00 2.181000000000e+03 0.000000000000e+00
    2.400000000000e+00 0.000000000000e+00 4.190951585770e-09 7.200000000000e+01
    3.096000000000e+05 4.000000000000e+00
 3 21 10 27 16  0  0.0-3.385799936950e-04-8.867573342286e-12 0.000000000000e+00
    1.290000000000e+02-7.006250000000e+01 4.311608167215e-09-2.028614393601e+00
   -3.613531589508e-06 3.897257032804e-03 7.664784789085e-06 5.153748216629e+03
    3.168000000000e+05 7.078051567078e-08 1.127203479361e+00-1.303851604462e-08
    9.708984302053e-01 2.379062500000e+02 1.000202720104e+00-7.822825852097e-09
    2.667968274445e-10 1.000000000000e+00 2.181000000000e+03 0.000000000000e+00
    4.850000000000e+00 0.000000000000e+00 1.862645149231e-09 1.290000000000e+02
    3.096000000000e+05 4.000000000000e+00
 7 21 10 27 16  0  0.0 2.691675908864e-04 5.911715561524e-12 0.000000000000e+00
    7.100000000000e+01 2.031250000000e+01 4.789842373304e-09-1.500382357976e+00
    1.000240445137e-06 1.530319289304e-02 7.260590791702e-06 5.153724308014e+03
    3.168000000000e+05 3.390014171600e-07-3.054767116775e+00-5.401670932770e-08
    9.516330733030e-01 2.324375000000e+02-2.302455192261e+00-7.918186967127e-09
   -1.950081228711e-10 1.000000000000e+00 2.181000000000e+03 0.000000000000e+00
    2.400000000000e+00 0.000000000000e+00-1.117587089539e-08 7.100000000000e+01
    3.096000000000e+05 4.000000000000e+00
